#cP2016  5  1  0  0  0.00000000       5 TESTO TESTR FIT TEST
## 1895      0.00000000   900.00000000 57509 0.0000000000000
+   23   R01R02R03R04R05R06R07R08R09R10R13R14R15R16R17R18R19
+        R20R21R22R23R24R26  0  0  0  0  0  0  0  0  0  0  0
+          0  0  0  0  0  0  0  0  0  0  0  0  0  0  0  0  0
+          0  0  0  0  0  0  0  0  0  0  0  0  0  0  0  0  0
+          0  0  0  0  0  0  0  0  0  0  0  0  0  0  0  0  0
++         5  5  5  5  5  5  5  5  5  5  5  5  5  5  5  5  5
++         5  5  5  5  5  5  0  0  0  0  0  0  0  0  0  0  0
++         0  0  0  0  0  0  0  0  0  0  0  0  0  0  0  0  0
++         0  0  0  0  0  0  0  0  0  0  0  0  0  0  0  0  0
++         0  0  0  0  0  0  0  0  0  0  0  0  0  0  0  0  0
%c R  cc GLO ccc cccc cccc cccc cccc ccccc ccccc ccccc ccccc
%c cc cc ccc ccc cccc cccc cccc cccc ccccc ccccc ccccc ccccc
%f  1.2500000  1.025000000  0.00000000000  0.000000000000000
%f  0.0000000  0.000000000  0.00000000000  0.000000000000000
%i    0    0    0    0      0      0      0      0         0
%i    0    0    0    0      0      0      0      0         0
/* Unique tests in this file: GLONASS sat codes, GLONASS sat
/* system code. This is the fourth SP3 mgex test file, and  
/* judges its unique test items from ...mgex1 through       
/* ...mgex3.                                                
*  2016  5  1  0  0  0.00000000
PR01 -12556.052794  -6124.781779 -21340.580741   -143.780036  0  0  0   0       
PR02 -23600.240355   4988.654065  -8193.971836    188.502869  0  0  0   0       
PR03 -20038.578858  12600.951090   9501.113960     68.659284  0  0  0   0       
PR04  -4377.781394  12768.666302  21658.323908    167.110970  0  0  0   0       
PR05  13282.731346   5664.274245  21021.232493    -11.419466  0  0  0   0       
PR06  23776.247235  -5597.039703   7399.038443     88.281601  0  0  0   0       
PR07  19971.469217 -12618.299680  -9623.116490     -8.216223  0  0  0   0       
PR08   4954.913810 -12851.146627 -21414.618876    -27.108735  0  0  0   0       
PR09  11404.160004  -2655.181237 -22628.018843    123.530165  0  0  0   0       
PR10   9526.839026 -19268.793594 -13700.692936     18.890671  0  0  0   0       
PR13 -11092.035429   3181.021848  22725.074393      8.519545  0  0  0   0       
PR14  -9090.929937  20382.299444  12392.622776    313.920482  0  0  0   0       
PR15  -3209.732822  25158.759834  -2144.733044     68.811708  0  0  0   0       
PR16   6228.743278  16332.127413 -18556.649809     32.028880  0  0  0   0       
PR17  -9227.893689   6334.655767 -22910.756991    -24.925980  0  0  0   0       
PR18   6114.124936  16243.541572 -18707.613852     99.558084  0  0  0   0       
PR19  18537.465708  17315.979003  -2711.364430   -153.753078  0  0  0   0       
PR20  19440.203045   7631.689013  14698.673239   -231.541260  0  0  0   0       
PR21   9470.016308  -6025.603565  22908.404980     62.042995  0  0  0   0       
PR22  -6514.316041 -16344.986891  18411.037739    199.408589  0  0  0   0       
PR23 -19058.008490 -16828.423560   2012.702169   -107.987321  0  0  0   0       
PR24 -19827.053059  -7933.690851 -13956.244989   -136.036591  0  0  0   0       
PR26  19114.537360   6281.325310  15683.247854     58.415476  0  0  0   0       
*  2016  5  1  0 15  0.00000000
PR01 -10070.718333  -7163.226482 -22311.341140   -143.779463  0  0  0   0       
PR02 -22445.749326   4641.177927 -11112.366966    188.504914  0  0  0   0       
PR03 -20891.475267  13104.664229   6490.952109     68.659947  0  0  0   0       
PR04  -6736.486495  13836.550146  20356.015137    167.112604  0  0  0   0       
PR05  10826.952384   6689.709411  22100.577908    -11.421202  0  0  0   0       
PR06  22726.631107  -5264.547539  10347.329245     88.282349  0  0  0   0       
PR07  20846.580907 -13133.450326  -6623.385400     -8.216413  0  0  0   0       
PR08   7298.207333 -13908.844052 -20042.206190    -27.108622  0  0  0   0       
PR09  10967.212254    133.808664 -22999.518817    123.537592  0  0  0   0       
PR10   9128.405222 -17461.549141 -16181.050312     18.891572  0  0  0   0       
PR13 -10727.962627    367.911191  23115.588739      8.519461  0  0  0   0       
PR14  -8700.536061  18724.965389  15001.263174    313.924875  0  0  0   0       
PR15  -3022.749961  25249.152030   1099.838079     68.810871  0  0  0   0       
PR16   6060.131576  18487.789065 -16460.097905     32.029539  0  0  0   0       
PR17 -11455.648965   4649.504808 -22303.683637    -24.926328  0  0  0   0       
PR18   4253.727137  14698.407362 -20415.069800     99.559475  0  0  0   0       
PR19  18234.388308  16842.661175  -5884.707862   -153.753554  0  0  0   0       
PR20  20829.203852   8534.339493  12066.788924   -231.543108  0  0  0   0       
PR21  11701.967065  -4357.023759  22243.956533     62.044311  0  0  0   0       
PR22  -4677.760650 -14817.585457  20188.807055    199.409104  0  0  0   0       
PR23 -18811.806539 -16416.554151   5200.909494   -107.990184  0  0  0   0       
PR24 -21151.739276  -8759.780676 -11250.112557   -136.036928  0  0  0   0       
PR26  20612.706610   7251.213184  13161.256594     58.421829  0  0  0   0       
*  2016  5  1  0 30  0.00000000
PR01  -7583.668887  -8419.956053 -22848.678891   -143.779634  0  0  0   0       
PR02 -21010.902035   4052.837172 -13813.984744    188.506893  0  0  0   0       
PR03 -21368.648141  13497.061456   3354.597612     68.659847  0  0  0   0       
PR04  -8847.405404  14988.979133  18658.852482    167.113139  0  0  0   0       
PR05   8356.502741   7937.533727  22750.477094    -11.422926  0  0  0   0       
PR06  21392.594714  -4695.790115  13094.897421     88.282865  0  0  0   0       
PR07  21345.545358 -13540.100911  -3495.058183     -8.217428  0  0  0   0       
PR08   9386.004854 -15045.720758 -18278.519046    -27.108579  0  0  0   0       
PR09  10732.881293   2964.887105 -22922.950274    123.545938  0  0  0   0       
PR10   8849.360521 -15344.819647 -18346.682769     18.892221  0  0  0   0       
PR13 -10573.292534  -2484.882352  23056.064844      8.519307  0  0  0   0       
PR14  -8417.984472  16740.364607  17318.977794    313.928884  0  0  0   0       
PR15  -2804.809031  24927.221783   4322.903683     68.811147  0  0  0   0       
PR16   6064.999863  20373.184715 -14042.955090     32.030485  0  0  0   0       
PR17 -13716.500123   3188.878056 -21263.112352    -24.926690  0  0  0   0       
PR18   2128.457394  13192.797135 -21726.262828     99.560907  0  0  0   0       
PR19  17580.323467  16177.186151  -8943.764625   -153.754060  0  0  0   0       
PR20  22003.317306   9139.874149   9201.378891   -231.545126  0  0  0   0       
PR21  13961.004528  -2917.641314  21147.577576     62.045786  0  0  0   0       
PR22  -2571.448232 -13323.832113  21573.012066    199.409665  0  0  0   0       
PR23 -18213.563501 -15811.306711   8288.026019   -107.993921  0  0  0   0       
PR24 -22245.453464  -9294.235958  -8325.457673   -136.037666  0  0  0   0       
PR26  21906.860230   7927.742406  10383.621491     58.427866  0  0  0   0       
*  2016  5  1  0 45  0.00000000
PR01  -5159.739305  -9871.878275 -22942.105697   -143.779028  0  0  0   0       
PR02 -19350.710650   3199.336501 -16246.059480    188.508593  0  0  0   0       
PR03 -21480.822179  13723.336596    152.985546     68.661093  0  0  0   0       
PR04 -10670.921444  16173.272897  16599.656292    167.114971  0  0  0   0       
PR05   5936.662316   9386.482183  22958.320795    -11.424731  0  0  0   0       
PR06  19826.944925  -3865.433335  15588.391719     88.283876  0  0  0   0       
PR07  21478.893720 -13783.486234   -298.906725     -8.218143  0  0  0   0       
PR08  11179.636768 -16208.415615 -16158.105102    -27.108465  0  0  0   0       
PR09  10705.746717   5768.097533 -22399.979414    123.554636  0  0  0   0       
PR10   8731.417063 -12969.391406 -20155.746401     18.892613  0  0  0   0       
PR13 -10630.918959  -5306.303587  22547.657075      8.519003  0  0  0   0       
PR14  -8287.376613  14475.356273  19300.598378    313.933390  0  0  0   0       
PR15  -2613.138543  24197.646488   7461.456250     68.811780  0  0  0   0       
PR16   6204.392020  21939.022539 -11352.032002     32.031215  0  0  0   0       
PR17 -15945.269378   1974.999693 -19809.373498    -24.927149  0  0  0   0       
PR18   -220.755165  11781.455404 -22615.468758     99.562269  0  0  0   0       
PR19  16563.643969  15376.516200 -11829.115687   -153.755098  0  0  0   0       
PR20  22907.313101   9471.052520   6157.909129   -231.546749  0  0  0   0       
PR21  16181.361512  -1728.476267  19640.475491     62.047314  0  0  0   0       
PR22   -235.585323 -11919.585803  22537.170940    199.410367  0  0  0   0       
PR23 -17250.629031 -15068.963307  11214.046850   -107.997426  0  0  0   0       
PR24 -23054.827214  -9562.764239  -5239.030964   -136.038864  0  0  0   0       
PR26  22940.044070   8331.182105   7404.237629     58.433828  0  0  0   0       
*  2016  5  1  1  0  0.00000000
PR01  -2859.048410 -11484.724237 -22589.754089   -143.778756  0  0  0   0       
PR02 -17526.095941   2068.052265 -18361.089689    188.510002  0  0  0   0       
PR03 -21251.163271  13733.435134  -3051.598550     68.662332  0  0  0   0       
PR04 -12178.988957  17331.802034  14218.284039    167.116535  0  0  0   0       
PR05   3628.398972  11003.946454  22720.088820    -11.426291  0  0  0   0       
PR06  18088.584009  -2759.446084  17779.364044     88.284252  0  0  0   0       
PR07  21269.581753 -13813.515773   2903.047045     -8.218761  0  0  0   0       
PR08  12652.280753 -17338.912894 -13722.477357    -27.108426  0  0  0   0       
PR09  10878.094849   8474.160422 -21440.978821    123.561830  0  0  0   0       
PR10   8806.592806 -10394.751724 -21573.390955     18.893479  0  0  0   0       
PR13 -10891.238478  -8026.217471  21600.275051      8.518692  0  0  0   0       
PR14  -8343.734130  11986.290830  20907.416859    313.938388  0  0  0   0       
PR15  -2503.057411  23078.788104  10454.177659     68.812100  0  0  0   0       
PR16   6431.519342  23146.475403  -8439.591103     32.031818  0  0  0   0       
PR17 -18075.182999   1017.668982 -17970.813476    -24.927656  0  0  0   0       
PR18  -2742.826215  10511.686191 -23065.128119     99.563814  0  0  0   0       
PR19  15185.883715  14500.327485 -14484.710889   -153.756055  0  0  0   0       
PR20  23493.712832   9561.509458   2995.275651   -231.548403  0  0  0   0       
PR21  18295.896171   -798.033772  17751.841523     62.048792  0  0  0   0       
PR22   2279.379476 -10653.328592  23063.051999    199.412095  0  0  0   0       
PR23 -15923.476481 -14248.690937  13922.102955   -108.001258  0  0  0   0       
PR24 -23534.863071  -9601.565009  -2050.770224   -136.038826  0  0  0   0       
PR26  23662.646946   8492.939180   4280.953751     58.439898  0  0  0   0       
EOF
